IRIDIUM 135             
1 43070U 17083A   26197.59387946  .00000071  00000+0  18369-4 0  9997
2 43070  86.3986 309.7233 0002226  94.2239 265.9211 14.34218122448363
IRIDIUM 138             
1 43071U 17083B   26197.54947901  .00000138  00000+0  42349-4 0  9995
2 43071  86.4000 309.4419 0002060  92.6647 267.4785 14.34218955448341
IRIDIUM 116             
1 43072U 17083C   26197.37823009  .00000121  00000+0  36226-4 0  9998
2 43072  86.3985 309.7989 0002490  98.0794 262.0685 14.34217961448355
IRIDIUM 130             
1 43073U 17083D   26197.55582615  .00000137  00000+0  42023-4 0  9993
2 43073  86.3994 310.0029 0002293 100.7313 259.4141 14.34218259448320
IRIDIUM 151             
1 43074U 17083E   26197.39091678  .00000112  00000+0  32991-4 0  9996
2 43074  86.3987 309.8521 0002273  95.0949 265.0506 14.34218201448320
IRIDIUM 134             
1 43075U 17083F   26197.35920372  .00000057  00000+0  13464-4 0  9997
2 43075  86.3988 309.8736 0002227  95.2844 264.8606 14.34217930448286
IRIDIUM 137             
1 43076U 17083G   26197.37188981  .00000066  00000+0  16488-4 0  9991
2 43076  86.3991 309.9620 0002714  93.3875 266.7632 14.34218080448353
IRIDIUM 141             
1 43077U 17083H   26197.57485125  .00000084  00000+0  22774-4 0  9999
2 43077  86.3985 309.7060 0002184  93.5068 266.6378 14.34217872448387
IRIDIUM 153             
1 43078U 17083J   26197.45726155  .00000061  00000+0  14816-4 0  9991
2 43078  86.3959 278.2342 0002126  94.9699 265.1740 14.34217866449474
IRIDIUM 131             
1 43079U 17083K   26197.35286067  .00000088  00000+0  24205-4 0  9996
2 43079  86.3990 309.9867 0002226  94.3683 265.7768 14.34218323448285
IRIDIUM 144             
1 43249U 18030A   26197.25429869  .00000069  00000+0  17699-4 0  9994
2 43249  86.3956 278.2475 0002392  96.4668 263.6800 14.34218065434304
IRIDIUM 149             
1 43250U 18030B   26197.26064151  .00000092  00000+0  25785-4 0  9997
2 43250  86.3955 278.2114 0002265  93.1563 266.9892 14.34218130434324
IRIDIUM 157             
1 43251U 18030C   26197.62851384  .00000141  00000+0  43287-4 0  9992
2 43251  86.3959 278.1117 0002265  94.1885 265.9570 14.34218381434352
IRIDIUM 140             
1 43252U 18030D   26197.50800515  .00000144  00000+0  44306-4 0  9996
2 43252  86.3957 278.1745 0002250  95.7812 264.3640 14.34217954434399
IRIDIUM 145             
1 43253U 18030E   26197.28601166  .00000111  00000+0  32392-4 0  9999
2 43253  86.3957 278.2394 0002562  99.9557 260.1928 14.34217597434294
IRIDIUM 146             
1 43254U 18030F   26197.26698435  .00000062  00000+0  15139-4 0  9998
2 43254  86.3958 278.2596 0002390  96.1856 263.9613 14.34217580434306
IRIDIUM 148             
1 43255U 18030G   26197.30504246  .00000140  00000+0  42950-4 0  9998
2 43255  86.3959 278.2871 0002341  93.2903 266.8560 14.34218276434341
IRIDIUM 142             
1 43256U 18030H   26197.27332710  .00000074  00000+0  19257-4 0  9990
2 43256  86.3954 278.1883 0002451  96.5651 263.5824 14.34218012434308
IRIDIUM 150             
1 43257U 18030J   26197.31138098 -.00000171  00000+0 -68055-4 0  9999
2 43257  86.3959 278.2897 0002157  95.8520 264.2922 14.34216573434330
IRIDIUM 143             
1 43258U 18030K   26197.29235570  .00000083  00000+0  22594-4 0  9998
2 43258  86.3962 278.3916 0002327  96.6745 263.4716 14.34217709434261
IRIDIUM 161             
1 43478U 18047C   26197.42660502  .00000159  00000+0  41128-4 0  9990
2 43478  86.4460  76.2431 0002242  80.9333 279.2122 14.43276074429351
IRIDIUM 152             
1 43479U 18047D   26197.40461003  .00000053  00000+0  11925-4 0  9999
2 43479  86.3934  76.1136 0002156  84.2330 275.9112 14.34218398426675
IRIDIUM 147             
1 43480U 18047E   26197.62025772  .00000076  00000+0  20106-4 0  9990
2 43480  86.3937  76.0291 0002268  88.4199 271.7257 14.34217443426702
IRIDIUM 110             
1 43481U 18047F   26197.62659829  .00000145  00000+0  44768-4 0  9994
2 43481  86.3939  76.1191 0002084  77.6802 282.4627 14.34218974426690
IRIDIUM 162             
1 43482U 18047G   26197.62830053  .00000178  00000+0  47005-4 0  9998
2 43482  86.4458  76.0492 0002200  87.1355 273.0098 14.43278914429376
IRIDIUM 160             
1 43569U 18061A   26197.50266705  .00000128  00000+0  38514-4 0  9994
2 43569  86.3940  44.5347 0002231  86.8097 273.3354 14.34217394417571
IRIDIUM 166             
1 43570U 18061B   26197.52803815  .00000048  00000+0  10241-4 0  9995
2 43570  86.3938  44.4743 0002279  89.7315 270.4142 14.34217775417606
IRIDIUM 158             
1 43571U 18061C   26197.49632450  .00000074  00000+0  19239-4 0  9992
2 43571  86.3938  44.4972 0002102  88.0141 272.1295 14.34217976417561
IRIDIUM 165             
1 43572U 18061D   26197.10308526  .00000034  00000+0  49603-5 0  9990
2 43572  86.3940  44.7086 0002285  90.7910 269.3548 14.34217160417531
IRIDIUM 155             
1 43573U 18061E   26197.55340798  .00000074  00000+0  19418-4 0  9991
2 43573  86.3936  44.3881 0002106  89.7357 270.4080 14.34217780417566
