OBJECT_NAME,OBJECT_ID,EPOCH,MEAN_MOTION,ECCENTRICITY,INCLINATION,RA_OF_ASC_NODE,ARG_OF_PERICENTER,MEAN_ANOMALY,EPHEMERIS_TYPE,CLASSIFICATION_TYPE,NORAD_CAT_ID,ELEMENT_SET_NO,REV_AT_EPOCH,BSTAR,MEAN_MOTION_DOT,MEAN_MOTION_DDOT
IRIDIUM 135,2017-083A,2026-07-16T14:15:11.185344,14.34218122,.00022269,86.3986,309.7233,94.2239,265.9211,0,U,43070,999,44836,.1836915E-4,.71E-6,0
IRIDIUM 138,2017-083B,2026-07-16T13:11:14.986464,14.34218955,.00020607,86.4000,309.4419,92.6647,267.4785,0,U,43071,999,44834,.42349007E-4,.138E-5,0
IRIDIUM 116,2017-083C,2026-07-16T09:04:39.079776,14.34217961,.00024902,86.3985,309.7989,98.0794,262.0685,0,U,43072,999,44835,.36225912E-4,.121E-5,0
IRIDIUM 130,2017-083D,2026-07-16T13:20:23.379360,14.34218259,.00022939,86.3994,310.0029,100.7313,259.4141,0,U,43073,999,44832,.42023107E-4,.137E-5,0
IRIDIUM 151,2017-083E,2026-07-16T09:22:55.209792,14.34218201,.00022733,86.3987,309.8521,95.0949,265.0506,0,U,43074,999,44832,.32990974E-4,.112E-5,0
IRIDIUM 134,2017-083F,2026-07-16T08:37:15.201408,14.34217930,.00022274,86.3988,309.8736,95.2844,264.8606,0,U,43075,999,44828,.13463899E-4,.57E-6,0
IRIDIUM 137,2017-083G,2026-07-16T08:55:31.279584,14.34218080,.00027145,86.3991,309.9620,93.3875,266.7632,0,U,43076,999,44835,.16488495E-4,.66E-6,0
IRIDIUM 141,2017-083H,2026-07-16T13:47:47.148000,14.34217872,.00021842,86.3985,309.7060,93.5068,266.6378,0,U,43077,999,44838,.22774256E-4,.84E-6,0
IRIDIUM 153,2017-083J,2026-07-16T10:58:27.397920,14.34217866,.00021261,86.3959,278.2342,94.9699,265.1740,0,U,43078,999,44947,.14816484E-4,.61E-6,0
IRIDIUM 131,2017-083K,2026-07-16T08:28:07.161888,14.34218323,.00022265,86.3990,309.9867,94.3683,265.7768,0,U,43079,999,44828,.24204766E-4,.88E-6,0
IRIDIUM 144,2018-030A,2026-07-16T06:06:11.406816,14.34218065,.00023924,86.3956,278.2475,96.4668,263.6800,0,U,43249,999,43430,.17699214E-4,.69E-6,0
IRIDIUM 149,2018-030B,2026-07-16T06:15:19.426464,14.34218130,.00022655,86.3955,278.2114,93.1563,266.9892,0,U,43250,999,43432,.25785094E-4,.92E-6,0
IRIDIUM 157,2018-030C,2026-07-16T15:05:03.595776,14.34218381,.00022656,86.3959,278.1117,94.1885,265.9570,0,U,43251,999,43435,.4328694E-4,.141E-5,0
IRIDIUM 140,2018-030D,2026-07-16T12:11:31.644960,14.34217954,.00022509,86.3957,278.1745,95.7812,264.3640,0,U,43252,999,43439,.44305714E-4,.144E-5,0
IRIDIUM 145,2018-030E,2026-07-16T06:51:51.407424,14.34217597,.0002562,86.3957,278.2394,99.9557,260.1928,0,U,43253,999,43429,.32392324E-4,.111E-5,0
IRIDIUM 146,2018-030F,2026-07-16T06:24:27.447840,14.34217580,.00023909,86.3958,278.2596,96.1856,263.9613,0,U,43254,999,43430,.15139074E-4,.62E-6,0
IRIDIUM 148,2018-030G,2026-07-16T07:19:15.668544,14.34218276,.00023417,86.3959,278.2871,93.2903,266.8560,0,U,43255,999,43434,.4294983E-4,.14E-5,0
IRIDIUM 142,2018-030H,2026-07-16T06:33:35.461440,14.34218012,.0002451,86.3954,278.1883,96.5651,263.5824,0,U,43256,999,43430,.19256667E-4,.74E-6,0
IRIDIUM 150,2018-030J,2026-07-16T07:28:23.316672,14.34216573,.0002157,86.3959,278.2897,95.8520,264.2922,0,U,43257,999,43433,-.68054778E-4,-.171E-5,0
IRIDIUM 143,2018-030K,2026-07-16T07:00:59.532480,14.34217709,.00023278,86.3962,278.3916,96.6745,263.4716,0,U,43258,999,43426,.22593677E-4,.83E-6,0
IRIDIUM 161,2018-047C,2026-07-16T10:14:18.673728,14.43276074,.00022426,86.4460,76.2431,80.9333,279.2122,0,U,43478,999,42935,.411279E-4,.159E-5,0
IRIDIUM 152,2018-047D,2026-07-16T09:42:38.306592,14.34218398,.00021564,86.3934,76.1136,84.2330,275.9112,0,U,43479,999,42667,.11924533E-4,.53E-6,0
IRIDIUM 147,2018-047E,2026-07-16T14:53:10.267008,14.34217443,.00022682,86.3937,76.0291,88.4199,271.7257,0,U,43480,999,42670,.201064E-4,.76E-6,0
IRIDIUM 110,2018-047F,2026-07-16T15:02:18.092256,14.34218974,.00020843,86.3939,76.1191,77.6802,282.4627,0,U,43481,999,42669,.44768096E-4,.145E-5,0
IRIDIUM 162,2018-047G,2026-07-16T15:04:45.165792,14.43278914,.00022,86.4458,76.0492,87.1355,273.0098,0,U,43482,999,42937,.47004682E-4,.178E-5,0
IRIDIUM 160,2018-061A,2026-07-16T12:03:50.433120,14.34217394,.00022316,86.3940,44.5347,86.8097,273.3354,0,U,43569,999,41757,.38513997E-4,.128E-5,0
IRIDIUM 166,2018-061B,2026-07-16T12:40:22.496160,14.34217775,.00022799,86.3938,44.4743,89.7315,270.4142,0,U,43570,999,41760,.10240898E-4,.48E-6,0
IRIDIUM 158,2018-061C,2026-07-16T11:54:42.436800,14.34217976,.00021025,86.3938,44.4972,88.0141,272.1295,0,U,43571,999,41756,.19239363E-4,.74E-6,0
IRIDIUM 165,2018-061D,2026-07-16T02:28:26.566464,14.34217160,.00022855,86.3940,44.7086,90.7910,269.3548,0,U,43572,999,41753,.4960346E-5,.34E-6,0
IRIDIUM 155,2018-061E,2026-07-16T13:16:54.449472,14.34217780,.00021062,86.3936,44.3881,89.7357,270.4080,0,U,43573,999,41756,.19417794E-4,.74E-6,0
